{"type": "FeatureCollection", "features": [{"type": "Feature", "properties": {"lane_id": "lane_ap6_kyec", "seq": 1, "mode": "road", "km": 3}, "geometry": {"type": "LineString", "coordinates": [[120.878, 24.682], [120.912, 24.688]]}}, {"type": "Feature", "properties": {"lane_id": "lane_foxconn_gdl_stargate", "seq": 1, "mode": "road", "km": 1358}, "geometry": {"type": "LineString", "coordinates": [[-103.35, 20.67], [-99.73, 32.45]]}}, {"type": "Feature", "properties": {"lane_id": "lane_nittobo_unimicron", "seq": 1, "mode": "road", "km": 221}, "geometry": {"type": "LineString", "coordinates": [[140.47, 37.76], [140.393, 35.772]]}}, {"type": "Feature", "properties": {"lane_id": "lane_nittobo_unimicron", "seq": 2, "mode": "air", "km": 2182}, "geometry": {"type": "LineString", "coordinates": [[140.393, 35.772], [140.0591, 35.6289], [139.7264, 35.4849], [139.3948, 35.34], [139.0645, 35.1942], [138.7353, 35.0476], [138.4074, 34.9], [138.0806, 34.7515], [137.755, 34.6022], [137.4305, 34.452], [137.1073, 34.301], [136.7852, 34.1491], [136.4642, 33.9964], [136.1444, 33.8428], [135.8258, 33.6884], [135.5083, 33.5332], [135.1919, 33.3772], [134.8767, 33.2204], [134.5626, 33.0628], [134.2497, 32.9044], [133.9378, 32.7453], [133.6271, 32.5854], [133.3175, 32.4247], [133.009, 32.2632], [132.7015, 32.1011], [132.3952, 31.9381], [132.09, 31.7745], [131.7858, 31.6101], [131.4827, 31.445], [131.1807, 31.2792], [130.8798, 31.1126], [130.5799, 30.9454], [130.281, 30.7775], [129.9832, 30.6089], [129.6865, 30.4397], [129.3907, 30.2697], [129.096, 30.0991], [128.8023, 29.9279], [128.5096, 29.756], [128.218, 29.5835], [127.9273, 29.4103], [127.6376, 29.2365], [127.3489, 29.062], [127.0611, 28.887], [126.7744, 28.7114], [126.4886, 28.5351], [126.2038, 28.3582], [125.9199, 28.1808], [125.6369, 28.0028], [125.3549, 27.8242], [125.0738, 27.645], [124.7936, 27.4653], [124.5144, 27.285], [124.236, 27.1041], [123.9586, 26.9227], [123.682, 26.7408], [123.4064, 26.5583], [123.1316, 26.3753], [122.8577, 26.1918], [122.5846, 26.0078], [122.3124, 25.8232], [122.041, 25.6381], [121.7705, 25.4526], [121.5009, 25.2665], [121.232, 25.08]]}}, {"type": "Feature", "properties": {"lane_id": "lane_nittobo_unimicron", "seq": 3, "mode": "road", "km": 21}, "geometry": {"type": "LineString", "coordinates": [[121.232, 25.08], [121.14, 24.91]]}}]}