{"type": "FeatureCollection", "features": [{"type": "Feature", "properties": {"lane_id": "lane_tsmc18_ap8", "seq": 1, "mode": "road", "km": 2}, "geometry": {"type": "LineString", "coordinates": [[120.272, 23.11], [120.29, 23.1]]}}, {"type": "Feature", "properties": {"lane_id": "lane_tsmc18_ap7", "seq": 1, "mode": "road", "km": 39}, "geometry": {"type": "LineString", "coordinates": [[120.272, 23.11], [120.3, 23.46]]}}, {"type": "Feature", "properties": {"lane_id": "lane_tsmc18_ap6", "seq": 1, "mode": "road", "km": 185}, "geometry": {"type": "LineString", "coordinates": [[120.272, 23.11], [120.878, 24.682]]}}, {"type": "Feature", "properties": {"lane_id": "lane_tsmc20_ap6", "seq": 1, "mode": "road", "km": 18}, "geometry": {"type": "LineString", "coordinates": [[121.03, 24.763], [120.878, 24.682]]}}, {"type": "Feature", "properties": {"lane_id": "lane_tsmc22_ap8", "seq": 1, "mode": "road", "km": 41}, "geometry": {"type": "LineString", "coordinates": [[120.32, 22.732], [120.29, 23.1]]}}, {"type": "Feature", "properties": {"lane_id": "lane_tsmcaz_ap6", "seq": 1, "mode": "road", "km": 39}, "geometry": {"type": "LineString", "coordinates": [[-112.14, 33.77], [-112.012, 33.434]]}}, {"type": "Feature", "properties": {"lane_id": "lane_tsmcaz_ap6", "seq": 2, "mode": "air", "km": 11413}, "geometry": {"type": "LineString", "coordinates": [[-112.012, 33.434], [-113.459, 34.4978], [-114.9432, 35.544], [-116.4662, 36.5717], [-118.0299, 37.5794], [-119.636, 38.5659], [-121.2863, 39.5299], [-122.9825, 40.4699], [-124.7262, 41.3844], [-126.5189, 42.2719], [-128.362, 43.1306], [-130.2566, 43.9589], [-132.2037, 44.7551], [-134.204, 45.5172], [-136.258, 46.2435], [-138.3656, 46.932], [-140.5264, 47.5809], [-142.7398, 48.1882], [-145.0043, 48.752], [-147.3181, 49.2705], [-149.6788, 49.7418], [-152.0833, 50.1643], [-154.5281, 50.5362], [-157.0091, 50.8562], [-159.5215, 51.1229], [-162.06, 51.3352], [-164.6191, 51.4922], [-167.1926, 51.5931], [-169.7745, 51.6375], [-172.3581, 51.6253], [-174.9372, 51.5565], [-177.5052, 51.4313], [179.9439, 51.2503], [177.4159, 51.0144], [174.9165, 50.7246], [172.4506, 50.382], [170.0227, 49.9881], [167.6366, 49.5443], [165.2959, 49.0524], [163.0031, 48.5142], [160.7605, 47.9314], [158.5696, 47.3059], [156.4317, 46.6396], [154.3472, 45.9346], [152.3164, 45.1926], [150.3391, 44.4155], [148.4148, 43.6053], [146.5426, 42.7636], [144.7214, 41.8923], [142.95, 40.993], [141.227, 40.0673], [139.5508, 39.1167], [137.9198, 38.1429], [136.3322, 37.147], [134.7863, 36.1305], [133.2802, 35.0947], [131.8123, 34.0408], [130.3808, 32.9698], [128.9837, 31.8829], [127.6195, 30.781], [126.2864, 29.6652], [124.9827, 28.5364], [123.7068, 27.3954], [122.4571, 26.243], [121.232, 25.08]]}}, {"type": "Feature", "properties": {"lane_id": "lane_tsmcaz_ap6", "seq": 3, "mode": "road", "km": 57}, "geometry": {"type": "LineString", "coordinates": [[121.232, 25.08], [120.878, 24.682]]}}, {"type": "Feature", "properties": {"lane_id": "lane_skh_hbm_ap6", "seq": 1, "mode": "road", "km": 126}, "geometry": {"type": "LineString", "coordinates": [[127.43, 36.645], [126.44, 37.46]]}}, {"type": "Feature", "properties": {"lane_id": "lane_skh_hbm_ap6", "seq": 2, "mode": "air", "km": 1462}, "geometry": {"type": "LineString", "coordinates": [[126.44, 37.46], [126.3467, 37.2684], [126.2539, 37.0767], [126.1615, 36.8849], [126.0696, 36.6931], [125.9782, 36.5012], [125.8872, 36.3092], [125.7966, 36.1172], [125.7065, 35.9251], [125.6169, 35.7329], [125.5276, 35.5407], [125.4388, 35.3484], [125.3505, 35.156], [125.2625, 34.9636], [125.1749, 34.7711], [125.0878, 34.5785], [125.0011, 34.3859], [124.9147, 34.1932], [124.8288, 34.0005], [124.7432, 33.8077], [124.658, 33.6148], [124.5732, 33.4219], [124.4888, 33.2289], [124.4048, 33.0359], [124.3211, 32.8428], [124.2378, 32.6497], [124.1548, 32.4565], [124.0722, 32.2632], [123.9899, 32.0699], [123.908, 31.8765], [123.8265, 31.6831], [123.7453, 31.4897], [123.6644, 31.2962], [123.5838, 31.1026], [123.5036, 30.909], [123.4237, 30.7153], [123.3441, 30.5216], [123.2648, 30.3278], [123.1859, 30.134], [123.1072, 29.9402], [123.0289, 29.7463], [122.9509, 29.5523], [122.8731, 29.3583], [122.7957, 29.1643], [122.7185, 28.9702], [122.6417, 28.7761], [122.5651, 28.5819], [122.4888, 28.3877], [122.4128, 28.1934], [122.337, 27.9992], [122.2616, 27.8048], [122.1864, 27.6104], [122.1115, 27.416], [122.0368, 27.2216], [121.9624, 27.0271], [121.8882, 26.8325], [121.8143, 26.6379], [121.7407, 26.4433], [121.6673, 26.2487], [121.5942, 26.054], [121.5213, 25.8593], [121.4486, 25.6645], [121.3762, 25.4697], [121.304, 25.2749], [121.232, 25.08]]}}, {"type": "Feature", "properties": {"lane_id": "lane_skh_hbm_ap6", "seq": 3, "mode": "road", "km": 57}, "geometry": {"type": "LineString", "coordinates": [[121.232, 25.08], [120.878, 24.682]]}}, {"type": "Feature", "properties": {"lane_id": "lane_skh_icheon_ap8", "seq": 1, "mode": "road", "km": 97}, "geometry": {"type": "LineString", "coordinates": [[127.49, 37.203], [126.44, 37.46]]}}, {"type": "Feature", "properties": {"lane_id": "lane_skh_icheon_ap8", "seq": 2, "mode": "air", "km": 1462}, "geometry": {"type": "LineString", "coordinates": [[126.44, 37.46], [126.3467, 37.2684], [126.2539, 37.0767], [126.1615, 36.8849], [126.0696, 36.6931], [125.9782, 36.5012], [125.8872, 36.3092], [125.7966, 36.1172], [125.7065, 35.9251], [125.6169, 35.7329], [125.5276, 35.5407], [125.4388, 35.3484], [125.3505, 35.156], [125.2625, 34.9636], [125.1749, 34.7711], [125.0878, 34.5785], [125.0011, 34.3859], [124.9147, 34.1932], [124.8288, 34.0005], [124.7432, 33.8077], [124.658, 33.6148], [124.5732, 33.4219], [124.4888, 33.2289], [124.4048, 33.0359], [124.3211, 32.8428], [124.2378, 32.6497], [124.1548, 32.4565], [124.0722, 32.2632], [123.9899, 32.0699], [123.908, 31.8765], [123.8265, 31.6831], [123.7453, 31.4897], [123.6644, 31.2962], [123.5838, 31.1026], [123.5036, 30.909], [123.4237, 30.7153], [123.3441, 30.5216], [123.2648, 30.3278], [123.1859, 30.134], [123.1072, 29.9402], [123.0289, 29.7463], [122.9509, 29.5523], [122.8731, 29.3583], [122.7957, 29.1643], [122.7185, 28.9702], [122.6417, 28.7761], [122.5651, 28.5819], [122.4888, 28.3877], [122.4128, 28.1934], [122.337, 27.9992], [122.2616, 27.8048], [122.1864, 27.6104], [122.1115, 27.416], [122.0368, 27.2216], [121.9624, 27.0271], [121.8882, 26.8325], [121.8143, 26.6379], [121.7407, 26.4433], [121.6673, 26.2487], [121.5942, 26.054], [121.5213, 25.8593], [121.4486, 25.6645], [121.3762, 25.4697], [121.304, 25.2749], [121.232, 25.08]]}}, {"type": "Feature", "properties": {"lane_id": "lane_skh_icheon_ap8", "seq": 3, "mode": "road", "km": 240}, "geometry": {"type": "LineString", "coordinates": [[121.232, 25.08], [120.29, 23.1]]}}, {"type": "Feature", "properties": {"lane_id": "lane_samsung_hbm_ap6", "seq": 1, "mode": "road", "km": 91}, "geometry": {"type": "LineString", "coordinates": [[127.02, 36.78], [126.44, 37.46]]}}, {"type": "Feature", "properties": {"lane_id": "lane_samsung_hbm_ap6", "seq": 2, "mode": "air", "km": 1462}, "geometry": {"type": "LineString", "coordinates": [[126.44, 37.46], [126.3467, 37.2684], [126.2539, 37.0767], [126.1615, 36.8849], [126.0696, 36.6931], [125.9782, 36.5012], [125.8872, 36.3092], [125.7966, 36.1172], [125.7065, 35.9251], [125.6169, 35.7329], [125.5276, 35.5407], [125.4388, 35.3484], [125.3505, 35.156], [125.2625, 34.9636], [125.1749, 34.7711], [125.0878, 34.5785], [125.0011, 34.3859], [124.9147, 34.1932], [124.8288, 34.0005], [124.7432, 33.8077], [124.658, 33.6148], [124.5732, 33.4219], [124.4888, 33.2289], [124.4048, 33.0359], [124.3211, 32.8428], [124.2378, 32.6497], [124.1548, 32.4565], [124.0722, 32.2632], [123.9899, 32.0699], [123.908, 31.8765], [123.8265, 31.6831], [123.7453, 31.4897], [123.6644, 31.2962], [123.5838, 31.1026], [123.5036, 30.909], [123.4237, 30.7153], [123.3441, 30.5216], [123.2648, 30.3278], [123.1859, 30.134], [123.1072, 29.9402], [123.0289, 29.7463], [122.9509, 29.5523], [122.8731, 29.3583], [122.7957, 29.1643], [122.7185, 28.9702], [122.6417, 28.7761], [122.5651, 28.5819], [122.4888, 28.3877], [122.4128, 28.1934], [122.337, 27.9992], [122.2616, 27.8048], [122.1864, 27.6104], [122.1115, 27.416], [122.0368, 27.2216], [121.9624, 27.0271], [121.8882, 26.8325], [121.8143, 26.6379], [121.7407, 26.4433], [121.6673, 26.2487], [121.5942, 26.054], [121.5213, 25.8593], [121.4486, 25.6645], [121.3762, 25.4697], [121.304, 25.2749], [121.232, 25.08]]}}, {"type": "Feature", "properties": {"lane_id": "lane_samsung_hbm_ap6", "seq": 3, "mode": "road", "km": 57}, "geometry": {"type": "LineString", "coordinates": [[121.232, 25.08], [120.878, 24.682]]}}, {"type": "Feature", "properties": {"lane_id": "lane_micron_hbm_ap6", "seq": 1, "mode": "road", "km": 45}, "geometry": {"type": "LineString", "coordinates": [[120.72, 24.3], [120.878, 24.682]]}}, {"type": "Feature", "properties": {"lane_id": "lane_ssf_basedie", "seq": 1, "mode": "road", "km": 49}, "geometry": {"type": "LineString", "coordinates": [[127.06, 37.22], [127.02, 36.78]]}}, {"type": "Feature", "properties": {"lane_id": "lane_ibiden_ap6", "seq": 1, "mode": "road", "km": 59}, "geometry": {"type": "LineString", "coordinates": [[136.62, 35.37], [136.805, 34.858]]}}, {"type": "Feature", "properties": {"lane_id": "lane_ibiden_ap6", "seq": 2, "mode": "air", "km": 1849}, "geometry": {"type": "LineString", "coordinates": [[136.805, 34.858], [136.5364, 34.7208], [136.2687, 34.5829], [136.0019, 34.4445], [135.736, 34.3055], [135.4709, 34.166], [135.2067, 34.0259], [134.9434, 33.8852], [134.681, 33.7439], [134.4194, 33.6021], [134.1587, 33.4598], [133.8989, 33.3169], [133.6399, 33.1735], [133.3817, 33.0295], [133.1244, 32.885], [132.868, 32.74], [132.6123, 32.5944], [132.3575, 32.4484], [132.1035, 32.3018], [131.8504, 32.1547], [131.5981, 32.0072], [131.3465, 31.8591], [131.0958, 31.7105], [130.8459, 31.5614], [130.5968, 31.4119], [130.3485, 31.2619], [130.1009, 31.1114], [129.8542, 30.9604], [129.6082, 30.809], [129.363, 30.6571], [129.1186, 30.5047], [128.875, 30.3519], [128.6321, 30.1986], [128.3899, 30.0449], [128.1485, 29.8908], [127.9079, 29.7362], [127.668, 29.5812], [127.4289, 29.4257], [127.1904, 29.2698], [126.9527, 29.1135], [126.7157, 28.9568], [126.4795, 28.7997], [126.2439, 28.6421], [126.0091, 28.4842], [125.7749, 28.3258], [125.5415, 28.1671], [125.3088, 28.0079], [125.0767, 27.8484], [124.8453, 27.6885], [124.6146, 27.5281], [124.3846, 27.3675], [124.1552, 27.2064], [123.9265, 27.045], [123.6985, 26.8832], [123.4711, 26.721], [123.2443, 26.5585], [123.0182, 26.3956], [122.7928, 26.2323], [122.568, 26.0687], [122.3438, 25.9048], [122.1202, 25.7405], [121.8972, 25.5759], [121.6749, 25.4109], [121.4531, 25.2456], [121.232, 25.08]]}}, {"type": "Feature", "properties": {"lane_id": "lane_ibiden_ap6", "seq": 3, "mode": "road", "km": 57}, "geometry": {"type": "LineString", "coordinates": [[121.232, 25.08], [120.878, 24.682]]}}, {"type": "Feature", "properties": {"lane_id": "lane_unimicron_ap6", "seq": 1, "mode": "road", "km": 37}, "geometry": {"type": "LineString", "coordinates": [[121.14, 24.91], [120.878, 24.682]]}}, {"type": "Feature", "properties": {"lane_id": "lane_kinsus_ap6", "seq": 1, "mode": "road", "km": 39}, "geometry": {"type": "LineString", "coordinates": [[121.1, 24.97], [120.878, 24.682]]}}, {"type": "Feature", "properties": {"lane_id": "lane_ajinomoto_ibiden", "seq": 1, "mode": "road", "km": 261}, "geometry": {"type": "LineString", "coordinates": [[139.07, 36.63], [136.62, 35.37]]}}, {"type": "Feature", "properties": {"lane_id": "lane_ajinomoto_unimicron", "seq": 1, "mode": "road", "km": 66}, "geometry": {"type": "LineString", "coordinates": [[139.72, 35.53], [140.393, 35.772]]}}, {"type": "Feature", "properties": {"lane_id": "lane_ajinomoto_unimicron", "seq": 2, "mode": "air", "km": 2182}, "geometry": {"type": "LineString", "coordinates": [[140.393, 35.772], [140.0591, 35.6289], [139.7264, 35.4849], [139.3948, 35.34], [139.0645, 35.1942], [138.7353, 35.0476], [138.4074, 34.9], [138.0806, 34.7515], [137.755, 34.6022], [137.4305, 34.452], [137.1073, 34.301], [136.7852, 34.1491], [136.4642, 33.9964], [136.1444, 33.8428], [135.8258, 33.6884], [135.5083, 33.5332], [135.1919, 33.3772], [134.8767, 33.2204], [134.5626, 33.0628], [134.2497, 32.9044], [133.9378, 32.7453], [133.6271, 32.5854], [133.3175, 32.4247], [133.009, 32.2632], [132.7015, 32.1011], [132.3952, 31.9381], [132.09, 31.7745], [131.7858, 31.6101], [131.4827, 31.445], [131.1807, 31.2792], [130.8798, 31.1126], [130.5799, 30.9454], [130.281, 30.7775], [129.9832, 30.6089], [129.6865, 30.4397], [129.3907, 30.2697], [129.096, 30.0991], [128.8023, 29.9279], [128.5096, 29.756], [128.218, 29.5835], [127.9273, 29.4103], [127.6376, 29.2365], [127.3489, 29.062], [127.0611, 28.887], [126.7744, 28.7114], [126.4886, 28.5351], [126.2038, 28.3582], [125.9199, 28.1808], [125.6369, 28.0028], [125.3549, 27.8242], [125.0738, 27.645], [124.7936, 27.4653], [124.5144, 27.285], [124.236, 27.1041], [123.9586, 26.9227], [123.682, 26.7408], [123.4064, 26.5583], [123.1316, 26.3753], [122.8577, 26.1918], [122.5846, 26.0078], [122.3124, 25.8232], [122.041, 25.6381], [121.7705, 25.4526], [121.5009, 25.2665], [121.232, 25.08]]}}, {"type": "Feature", "properties": {"lane_id": "lane_ajinomoto_unimicron", "seq": 3, "mode": "road", "km": 21}, "geometry": {"type": "LineString", "coordinates": [[121.232, 25.08], [121.14, 24.91]]}}, {"type": "Feature", "properties": {"lane_id": "lane_ap6_wistron", "seq": 1, "mode": "road", "km": 57}, "geometry": {"type": "LineString", "coordinates": [[120.878, 24.682], [121.232, 25.08]]}}, {"type": "Feature", "properties": {"lane_id": "lane_ap6_wistron", "seq": 2, "mode": "air", "km": 12400}, "geometry": {"type": "LineString", "coordinates": [[121.232, 25.08], [122.3205, 26.5208], [123.4367, 27.9531], [124.5827, 29.3761], [125.7611, 30.7891], [126.9746, 32.1911], [128.2258, 33.5812], [129.5178, 34.9582], [130.8538, 36.3212], [132.2371, 37.6687], [133.6712, 38.9994], [135.1598, 40.312], [136.7071, 41.6047], [138.3171, 42.8758], [139.9941, 44.1234], [141.7428, 45.3455], [143.5678, 46.5397], [145.4737, 47.7035], [147.4654, 48.8344], [149.5477, 49.9294], [151.7249, 50.9854], [154.0015, 51.9991], [156.3811, 52.9669], [158.8668, 53.8851], [161.4607, 54.7496], [164.164, 55.5564], [166.9761, 56.3013], [169.8949, 56.9801], [172.9164, 57.5884], [176.0342, 58.1223], [179.2398, 58.5779], [-177.4778, 58.9517], [-174.1318, 59.2408], [-170.7373, 59.4426], [-167.311, 59.5555], [-163.8709, 59.5784], [-160.4354, 59.5112], [-157.0226, 59.3543], [-153.6499, 59.1094], [-150.3333, 58.7783], [-147.0872, 58.3638], [-143.9236, 57.8692], [-140.8523, 57.2982], [-137.8806, 56.6547], [-135.0139, 55.9429], [-132.2552, 55.167], [-129.6057, 54.3313], [-127.0652, 53.4399], [-124.6321, 52.4968], [-122.3036, 51.506], [-120.0764, 50.4711], [-117.9464, 49.3955], [-115.9093, 48.2824], [-113.9603, 47.135], [-112.0948, 45.9559], [-110.308, 44.7477], [-108.5951, 43.5128], [-106.9516, 42.2534], [-105.373, 40.9714], [-103.8551, 39.6687], [-102.3937, 38.347], [-100.9851, 37.0079], [-99.6255, 35.6526], [-98.3116, 34.2826], [-97.04, 32.899]]}}, {"type": "Feature", "properties": {"lane_id": "lane_ap6_wistron", "seq": 3, "mode": "road", "km": 32}, "geometry": {"type": "LineString", "coordinates": [[-97.04, 32.899], [-97.33, 32.75]]}}, {"type": "Feature", "properties": {"lane_id": "lane_ap6_foxconn_gdl", "seq": 1, "mode": "road", "km": 57}, "geometry": {"type": "LineString", "coordinates": [[120.878, 24.682], [121.232, 25.08]]}}, {"type": "Feature", "properties": {"lane_id": "lane_ap6_foxconn_gdl", "seq": 2, "mode": "air", "km": 13024}, "geometry": {"type": "LineString", "coordinates": [[121.232, 25.08], [122.7388, 26.3071], [124.2777, 27.5181], [125.8506, 28.7117], [127.4595, 29.8868], [129.1064, 31.0419], [130.7935, 32.1755], [132.5226, 33.2863], [134.2958, 34.3724], [136.1151, 35.4323], [137.9822, 36.4643], [139.8989, 37.4663], [141.8669, 38.4366], [143.8875, 39.373], [145.962, 40.2736], [148.0913, 41.1362], [150.276, 41.9585], [152.5163, 42.7383], [154.8121, 43.4734], [157.1625, 44.1615], [159.5663, 44.8002], [162.0218, 45.3875], [164.5264, 45.921], [167.0771, 46.3988], [169.6701, 46.819], [172.301, 47.1797], [174.9648, 47.4794], [177.656, 47.7167], [-179.6315, 47.8906], [-176.9041, 48.0003], [-174.1685, 48.0451], [-171.4316, 48.025], [-168.7003, 47.94], [-165.9813, 47.7904], [-163.2813, 47.5771], [-160.6064, 47.301], [-157.9623, 46.9633], [-155.3543, 46.5656], [-152.787, 46.1095], [-150.2645, 45.597], [-147.79, 45.0299], [-145.3663, 44.4105], [-142.9953, 43.7409], [-140.6787, 43.0235], [-138.4172, 42.2604], [-136.2114, 41.454], [-134.061, 40.6065], [-131.9658, 39.7201], [-129.9248, 38.7971], [-127.9369, 37.8394], [-126.0008, 36.8492], [-124.1151, 35.8285], [-122.2778, 34.779], [-120.4873, 33.7026], [-118.7416, 32.601], [-117.0388, 31.4759], [-115.3768, 30.3288], [-113.7537, 29.1612], [-112.1673, 27.9744], [-110.6158, 26.7699], [-109.097, 25.5488], [-107.609, 24.3124], [-106.1499, 23.0617], [-104.7179, 21.7979], [-103.311, 20.522]]}}, {"type": "Feature", "properties": {"lane_id": "lane_ap6_foxconn_gdl", "seq": 3, "mode": "road", "km": 17}, "geometry": {"type": "LineString", "coordinates": [[-103.311, 20.522], [-103.35, 20.67]]}}, {"type": "Feature", "properties": {"lane_id": "lane_ap6_foxconn_hou", "seq": 1, "mode": "road", "km": 57}, "geometry": {"type": "LineString", "coordinates": [[120.878, 24.682], [121.232, 25.08]]}}, {"type": "Feature", "properties": {"lane_id": "lane_ap6_foxconn_hou", "seq": 2, "mode": "air", "km": 12756}, "geometry": {"type": "LineString", "coordinates": [[121.232, 25.08], [122.3702, 26.5508], [123.5378, 28.0123], [124.7375, 29.4637], [125.9719, 30.904], [127.2439, 32.3323], [128.5564, 33.7473], [129.9128, 35.1481], [131.3164, 36.5331], [132.7709, 37.9012], [134.2801, 39.2506], [135.8481, 40.5799], [137.4791, 41.887], [139.1776, 43.1702], [140.9483, 44.4271], [142.7959, 45.6555], [144.7253, 46.8528], [146.7414, 48.0162], [148.849, 49.1427], [151.0529, 50.2291], [153.3575, 51.2719], [155.7665, 52.2673], [158.2834, 53.2116], [160.9102, 54.1005], [163.6481, 54.9297], [166.4967, 55.6948], [169.4538, 56.3915], [172.5152, 57.0153], [175.6744, 57.562], [178.9227, 58.0274], [-177.7513, 58.4082], [-174.3612, 58.701], [-170.9225, 58.9034], [-167.4527, 59.0136], [-163.9699, 59.0306], [-160.4932, 58.9543], [-157.0411, 58.7853], [-153.6314, 58.5252], [-150.2803, 58.1762], [-147.0023, 57.7412], [-143.8094, 57.2237], [-140.7115, 56.6275], [-137.7158, 55.9569], [-134.8273, 55.2162], [-132.0489, 54.4098], [-129.3817, 53.5422], [-126.825, 52.6176], [-124.377, 51.6404], [-122.0347, 50.6144], [-119.7946, 49.5435], [-117.6524, 48.4312], [-115.6035, 47.2809], [-113.6431, 46.0956], [-111.7663, 44.8782], [-109.9681, 43.6314], [-108.2438, 42.3576], [-106.5887, 41.0589], [-104.9983, 39.7375], [-103.4681, 38.3952], [-101.9942, 37.0338], [-100.5724, 35.6548], [-99.1993, 34.2596], [-97.8711, 32.8496], [-96.5847, 31.426], [-95.337, 29.99]]}}, {"type": "Feature", "properties": {"lane_id": "lane_ap6_foxconn_hou", "seq": 3, "mode": "road", "km": 26}, "geometry": {"type": "LineString", "coordinates": [[-95.337, 29.99], [-95.37, 29.76]]}}, {"type": "Feature", "properties": {"lane_id": "lane_asml_tsmc20", "seq": 1, "mode": "road", "km": 109}, "geometry": {"type": "LineString", "coordinates": [[5.41, 51.41], [4.768, 52.31]]}}, {"type": "Feature", "properties": {"lane_id": "lane_asml_tsmc20", "seq": 2, "mode": "air", "km": 9442}, "geometry": {"type": "LineString", "coordinates": [[4.768, 52.31], [6.5655, 53.0672], [8.4262, 53.7963], [10.3513, 54.4957], [12.3418, 55.1634], [14.3985, 55.7976], [16.5213, 56.3964], [18.7097, 56.9577], [20.9627, 57.4798], [23.2784, 57.9605], [25.6541, 58.398], [28.0865, 58.7905], [30.5711, 59.1362], [33.1028, 59.4336], [35.6755, 59.6812], [38.2826, 59.8777], [40.9166, 60.0221], [43.5694, 60.1137], [46.2327, 60.1521], [48.8979, 60.1369], [51.5564, 60.0683], [54.1995, 59.9466], [56.8191, 59.7725], [59.4076, 59.5469], [61.9579, 59.2709], [64.4635, 58.9459], [66.9191, 58.5734], [69.3198, 58.1551], [71.6618, 57.6929], [73.9422, 57.1885], [76.1587, 56.6439], [78.31, 56.061], [80.3953, 55.4419], [82.4144, 54.7885], [84.3677, 54.1026], [86.2561, 53.3861], [88.0807, 52.6408], [89.8431, 51.8685], [91.5451, 51.0707], [93.1885, 50.2491], [94.7755, 49.405], [96.3082, 48.54], [97.7888, 47.6554], [99.2195, 46.7523], [100.6027, 45.832], [101.9405, 44.8955], [103.2351, 43.9439], [104.4885, 42.9782], [105.703, 41.9992], [106.8804, 41.0079], [108.0227, 40.0048], [109.1318, 38.9909], [110.2094, 37.9668], [111.2571, 36.9332], [112.2768, 35.8906], [113.2698, 34.8396], [114.2377, 33.7807], [115.1818, 32.7144], [116.1036, 31.6413], [117.0043, 30.5617], [117.8851, 29.476], [118.7472, 28.3846], [119.5917, 27.2879], [120.4196, 26.1863], [121.232, 25.08]]}}, {"type": "Feature", "properties": {"lane_id": "lane_asml_tsmc20", "seq": 3, "mode": "road", "km": 41}, "geometry": {"type": "LineString", "coordinates": [[121.232, 25.08], [121.03, 24.763]]}}, {"type": "Feature", "properties": {"lane_id": "lane_asml_tsmc18", "seq": 1, "mode": "road", "km": 109}, "geometry": {"type": "LineString", "coordinates": [[5.41, 51.41], [4.768, 52.31]]}}, {"type": "Feature", "properties": {"lane_id": "lane_asml_tsmc18", "seq": 2, "mode": "air", "km": 9442}, "geometry": {"type": "LineString", "coordinates": [[4.768, 52.31], [6.5655, 53.0672], [8.4262, 53.7963], [10.3513, 54.4957], [12.3418, 55.1634], [14.3985, 55.7976], [16.5213, 56.3964], [18.7097, 56.9577], [20.9627, 57.4798], [23.2784, 57.9605], [25.6541, 58.398], [28.0865, 58.7905], [30.5711, 59.1362], [33.1028, 59.4336], [35.6755, 59.6812], [38.2826, 59.8777], [40.9166, 60.0221], [43.5694, 60.1137], [46.2327, 60.1521], [48.8979, 60.1369], [51.5564, 60.0683], [54.1995, 59.9466], [56.8191, 59.7725], [59.4076, 59.5469], [61.9579, 59.2709], [64.4635, 58.9459], [66.9191, 58.5734], [69.3198, 58.1551], [71.6618, 57.6929], [73.9422, 57.1885], [76.1587, 56.6439], [78.31, 56.061], [80.3953, 55.4419], [82.4144, 54.7885], [84.3677, 54.1026], [86.2561, 53.3861], [88.0807, 52.6408], [89.8431, 51.8685], [91.5451, 51.0707], [93.1885, 50.2491], [94.7755, 49.405], [96.3082, 48.54], [97.7888, 47.6554], [99.2195, 46.7523], [100.6027, 45.832], [101.9405, 44.8955], [103.2351, 43.9439], [104.4885, 42.9782], [105.703, 41.9992], [106.8804, 41.0079], [108.0227, 40.0048], [109.1318, 38.9909], [110.2094, 37.9668], [111.2571, 36.9332], [112.2768, 35.8906], [113.2698, 34.8396], [114.2377, 33.7807], [115.1818, 32.7144], [116.1036, 31.6413], [117.0043, 30.5617], [117.8851, 29.476], [118.7472, 28.3846], [119.5917, 27.2879], [120.4196, 26.1863], [121.232, 25.08]]}}, {"type": "Feature", "properties": {"lane_id": "lane_asml_tsmc18", "seq": 3, "mode": "road", "km": 240}, "geometry": {"type": "LineString", "coordinates": [[121.232, 25.08], [120.272, 23.11]]}}, {"type": "Feature", "properties": {"lane_id": "lane_asml_tsmc22", "seq": 1, "mode": "road", "km": 109}, "geometry": {"type": "LineString", "coordinates": [[5.41, 51.41], [4.768, 52.31]]}}, {"type": "Feature", "properties": {"lane_id": "lane_asml_tsmc22", "seq": 2, "mode": "air", "km": 9442}, "geometry": {"type": "LineString", "coordinates": [[4.768, 52.31], [6.5655, 53.0672], [8.4262, 53.7963], [10.3513, 54.4957], [12.3418, 55.1634], [14.3985, 55.7976], [16.5213, 56.3964], [18.7097, 56.9577], [20.9627, 57.4798], [23.2784, 57.9605], [25.6541, 58.398], [28.0865, 58.7905], [30.5711, 59.1362], [33.1028, 59.4336], [35.6755, 59.6812], [38.2826, 59.8777], [40.9166, 60.0221], [43.5694, 60.1137], [46.2327, 60.1521], [48.8979, 60.1369], [51.5564, 60.0683], [54.1995, 59.9466], [56.8191, 59.7725], [59.4076, 59.5469], [61.9579, 59.2709], [64.4635, 58.9459], [66.9191, 58.5734], [69.3198, 58.1551], [71.6618, 57.6929], [73.9422, 57.1885], [76.1587, 56.6439], [78.31, 56.061], [80.3953, 55.4419], [82.4144, 54.7885], [84.3677, 54.1026], [86.2561, 53.3861], [88.0807, 52.6408], [89.8431, 51.8685], [91.5451, 51.0707], [93.1885, 50.2491], [94.7755, 49.405], [96.3082, 48.54], [97.7888, 47.6554], [99.2195, 46.7523], [100.6027, 45.832], [101.9405, 44.8955], [103.2351, 43.9439], [104.4885, 42.9782], [105.703, 41.9992], [106.8804, 41.0079], [108.0227, 40.0048], [109.1318, 38.9909], [110.2094, 37.9668], [111.2571, 36.9332], [112.2768, 35.8906], [113.2698, 34.8396], [114.2377, 33.7807], [115.1818, 32.7144], [116.1036, 31.6413], [117.0043, 30.5617], [117.8851, 29.476], [118.7472, 28.3846], [119.5917, 27.2879], [120.4196, 26.1863], [121.232, 25.08]]}}, {"type": "Feature", "properties": {"lane_id": "lane_asml_tsmc22", "seq": 3, "mode": "road", "km": 277}, "geometry": {"type": "LineString", "coordinates": [[121.232, 25.08], [120.32, 22.732]]}}, {"type": "Feature", "properties": {"lane_id": "lane_asml_tsmcaz", "seq": 1, "mode": "road", "km": 109}, "geometry": {"type": "LineString", "coordinates": [[5.41, 51.41], [4.768, 52.31]]}}, {"type": "Feature", "properties": {"lane_id": "lane_asml_tsmcaz", "seq": 2, "mode": "air", "km": 8685}, "geometry": {"type": "LineString", "coordinates": [[4.768, 52.31], [3.2207, 53.0913], [1.617, 53.8517], [-0.0452, 54.59], [-1.7677, 55.3047], [-3.5523, 55.9942], [-5.4005, 56.6571], [-7.3133, 57.2916], [-9.2917, 57.8961], [-11.3359, 58.4688], [-13.4458, 59.008], [-15.6207, 59.5117], [-17.8589, 59.9783], [-20.1585, 60.406], [-22.5163, 60.793], [-24.9286, 61.1377], [-27.3907, 61.4386], [-29.8971, 61.6942], [-32.4416, 61.9033], [-35.017, 62.0649], [-37.6159, 62.1781], [-40.23, 62.2423], [-42.851, 62.2572], [-45.4703, 62.2227], [-48.0794, 62.139], [-50.6699, 62.0065], [-53.2339, 61.826], [-55.7641, 61.5983], [-58.2536, 61.3245], [-60.6966, 61.0061], [-63.0877, 60.6444], [-65.4229, 60.2411], [-67.6984, 59.7977], [-69.9117, 59.3162], [-72.0609, 58.7981], [-74.1448, 58.2455], [-76.1629, 57.6599], [-78.1152, 57.0433], [-80.0023, 56.3973], [-81.825, 55.7237], [-83.5848, 55.024], [-85.2832, 54.2997], [-86.9219, 53.5525], [-88.503, 52.7836], [-90.0285, 51.9945], [-91.5005, 51.1863], [-92.9212, 50.3603], [-94.2928, 49.5176], [-95.6175, 48.6593], [-96.8975, 47.7862], [-98.1349, 46.8994], [-99.3318, 45.9997], [-100.49, 45.088], [-101.6117, 44.1648], [-102.6986, 43.2311], [-103.7525, 42.2873], [-104.7752, 41.3342], [-105.7682, 40.3724], [-106.7332, 39.4022], [-107.6716, 38.4243], [-108.5848, 37.4391], [-109.4742, 36.4471], [-110.341, 35.4487], [-111.1866, 34.4442], [-112.012, 33.434]]}}, {"type": "Feature", "properties": {"lane_id": "lane_asml_tsmcaz", "seq": 3, "mode": "road", "km": 39}, "geometry": {"type": "LineString", "coordinates": [[-112.012, 33.434], [-112.14, 33.77]]}}, {"type": "Feature", "properties": {"lane_id": "lane_asml_skh", "seq": 1, "mode": "road", "km": 109}, "geometry": {"type": "LineString", "coordinates": [[5.41, 51.41], [4.768, 52.31]]}}, {"type": "Feature", "properties": {"lane_id": "lane_asml_skh", "seq": 2, "mode": "air", "km": 8552}, "geometry": {"type": "LineString", "coordinates": [[4.768, 52.31], [6.1584, 53.1677], [7.6049, 54.0085], [9.1105, 54.8312], [10.6779, 55.6346], [12.3101, 56.4171], [14.0098, 57.1773], [15.7798, 57.9136], [17.6225, 58.6243], [19.5402, 59.3075], [21.5349, 59.9614], [23.6079, 60.5841], [25.7601, 61.1734], [27.9917, 61.7273], [30.3023, 62.2436], [32.6901, 62.7202], [35.1528, 63.155], [37.6865, 63.5459], [40.2865, 63.8909], [42.9467, 64.1882], [45.6596, 64.436], [48.417, 64.633], [51.2092, 64.7779], [54.0261, 64.8699], [56.8566, 64.9084], [59.6896, 64.893], [62.5137, 64.8239], [65.3178, 64.7016], [68.0914, 64.5268], [70.8245, 64.3006], [73.5082, 64.0244], [76.1348, 63.6996], [78.6977, 63.3282], [81.1914, 62.912], [83.6117, 62.453], [85.9556, 61.9535], [88.2212, 61.4154], [90.4076, 60.8411], [92.5144, 60.2325], [94.5425, 59.5917], [96.493, 58.9208], [98.3677, 58.2217], [100.1686, 57.4962], [101.8981, 56.746], [103.5589, 55.9729], [105.1538, 55.1783], [106.6855, 54.3637], [108.157, 53.5305], [109.5712, 52.6799], [110.9308, 51.8131], [112.2386, 50.9313], [113.4974, 50.0354], [114.7098, 49.1264], [115.8782, 48.2051], [117.0051, 47.2725], [118.0927, 46.3291], [119.1433, 45.3758], [120.1589, 44.4132], [121.1414, 43.4419], [122.0927, 42.4624], [123.0146, 41.4754], [123.9088, 40.4811], [124.7768, 39.4802], [125.62, 38.4731], [126.44, 37.46]]}}, {"type": "Feature", "properties": {"lane_id": "lane_asml_skh", "seq": 3, "mode": "road", "km": 126}, "geometry": {"type": "LineString", "coordinates": [[126.44, 37.46], [127.42, 36.64]]}}, {"type": "Feature", "properties": {"lane_id": "lane_asml_samsung", "seq": 1, "mode": "road", "km": 109}, "geometry": {"type": "LineString", "coordinates": [[5.41, 51.41], [4.768, 52.31]]}}, {"type": "Feature", "properties": {"lane_id": "lane_asml_samsung", "seq": 2, "mode": "air", "km": 8552}, "geometry": {"type": "LineString", "coordinates": [[4.768, 52.31], [6.1584, 53.1677], [7.6049, 54.0085], [9.1105, 54.8312], [10.6779, 55.6346], [12.3101, 56.4171], [14.0098, 57.1773], [15.7798, 57.9136], [17.6225, 58.6243], [19.5402, 59.3075], [21.5349, 59.9614], [23.6079, 60.5841], [25.7601, 61.1734], [27.9917, 61.7273], [30.3023, 62.2436], [32.6901, 62.7202], [35.1528, 63.155], [37.6865, 63.5459], [40.2865, 63.8909], [42.9467, 64.1882], [45.6596, 64.436], [48.417, 64.633], [51.2092, 64.7779], [54.0261, 64.8699], [56.8566, 64.9084], [59.6896, 64.893], [62.5137, 64.8239], [65.3178, 64.7016], [68.0914, 64.5268], [70.8245, 64.3006], [73.5082, 64.0244], [76.1348, 63.6996], [78.6977, 63.3282], [81.1914, 62.912], [83.6117, 62.453], [85.9556, 61.9535], [88.2212, 61.4154], [90.4076, 60.8411], [92.5144, 60.2325], [94.5425, 59.5917], [96.493, 58.9208], [98.3677, 58.2217], [100.1686, 57.4962], [101.8981, 56.746], [103.5589, 55.9729], [105.1538, 55.1783], [106.6855, 54.3637], [108.157, 53.5305], [109.5712, 52.6799], [110.9308, 51.8131], [112.2386, 50.9313], [113.4974, 50.0354], [114.7098, 49.1264], [115.8782, 48.2051], [117.0051, 47.2725], [118.0927, 46.3291], [119.1433, 45.3758], [120.1589, 44.4132], [121.1414, 43.4419], [122.0927, 42.4624], [123.0146, 41.4754], [123.9088, 40.4811], [124.7768, 39.4802], [125.62, 38.4731], [126.44, 37.46]]}}, {"type": "Feature", "properties": {"lane_id": "lane_asml_samsung", "seq": 3, "mode": "road", "km": 73}, "geometry": {"type": "LineString", "coordinates": [[126.44, 37.46], [127.05, 37.02]]}}, {"type": "Feature", "properties": {"lane_id": "lane_asml_intel", "seq": 1, "mode": "road", "km": 109}, "geometry": {"type": "LineString", "coordinates": [[5.41, 51.41], [4.768, 52.31]]}}, {"type": "Feature", "properties": {"lane_id": "lane_asml_intel", "seq": 2, "mode": "air", "km": 8685}, "geometry": {"type": "LineString", "coordinates": [[4.768, 52.31], [3.2207, 53.0913], [1.617, 53.8517], [-0.0452, 54.59], [-1.7677, 55.3047], [-3.5523, 55.9942], [-5.4005, 56.6571], [-7.3133, 57.2916], [-9.2917, 57.8961], [-11.3359, 58.4688], [-13.4458, 59.008], [-15.6207, 59.5117], [-17.8589, 59.9783], [-20.1585, 60.406], [-22.5163, 60.793], [-24.9286, 61.1377], [-27.3907, 61.4386], [-29.8971, 61.6942], [-32.4416, 61.9033], [-35.017, 62.0649], [-37.6159, 62.1781], [-40.23, 62.2423], [-42.851, 62.2572], [-45.4703, 62.2227], [-48.0794, 62.139], [-50.6699, 62.0065], [-53.2339, 61.826], [-55.7641, 61.5983], [-58.2536, 61.3245], [-60.6966, 61.0061], [-63.0877, 60.6444], [-65.4229, 60.2411], [-67.6984, 59.7977], [-69.9117, 59.3162], [-72.0609, 58.7981], [-74.1448, 58.2455], [-76.1629, 57.6599], [-78.1152, 57.0433], [-80.0023, 56.3973], [-81.825, 55.7237], [-83.5848, 55.024], [-85.2832, 54.2997], [-86.9219, 53.5525], [-88.503, 52.7836], [-90.0285, 51.9945], [-91.5005, 51.1863], [-92.9212, 50.3603], [-94.2928, 49.5176], [-95.6175, 48.6593], [-96.8975, 47.7862], [-98.1349, 46.8994], [-99.3318, 45.9997], [-100.49, 45.088], [-101.6117, 44.1648], [-102.6986, 43.2311], [-103.7525, 42.2873], [-104.7752, 41.3342], [-105.7682, 40.3724], [-106.7332, 39.4022], [-107.6716, 38.4243], [-108.5848, 37.4391], [-109.4742, 36.4471], [-110.341, 35.4487], [-111.1866, 34.4442], [-112.012, 33.434]]}}, {"type": "Feature", "properties": {"lane_id": "lane_asml_intel", "seq": 3, "mode": "road", "km": 20}, "geometry": {"type": "LineString", "coordinates": [[-112.012, 33.434], [-111.88, 33.29]]}}, {"type": "Feature", "properties": {"lane_id": "lane_zeiss_ok_asml", "seq": 1, "mode": "road", "km": 444}, "geometry": {"type": "LineString", "coordinates": [[10.1, 48.785], [5.41, 51.41]]}}, {"type": "Feature", "properties": {"lane_id": "lane_zeiss_wz_asml", "seq": 1, "mode": "road", "km": 236}, "geometry": {"type": "LineString", "coordinates": [[8.5, 50.56], [5.41, 51.41]]}}, {"type": "Feature", "properties": {"lane_id": "lane_trumpf_asml", "seq": 1, "mode": "road", "km": 388}, "geometry": {"type": "LineString", "coordinates": [[9.07, 48.83], [5.41, 51.41]]}}, {"type": "Feature", "properties": {"lane_id": "lane_cymer_asml", "seq": 1, "mode": "road", "km": 160}, "geometry": {"type": "LineString", "coordinates": [[-117.08, 33.02], [-118.408, 33.942]]}}, {"type": "Feature", "properties": {"lane_id": "lane_cymer_asml", "seq": 2, "mode": "air", "km": 8956}, "geometry": {"type": "LineString", "coordinates": [[-118.408, 33.942], [-117.6109, 35.0153], [-116.7926, 36.0833], [-115.9518, 37.1456], [-115.0872, 38.2018], [-114.1971, 39.2514], [-113.2802, 40.2941], [-112.3345, 41.3293], [-111.3585, 42.3565], [-110.3502, 43.3752], [-109.3075, 44.3847], [-108.2285, 45.3843], [-107.1108, 46.3735], [-105.9521, 47.3514], [-104.7499, 48.3171], [-103.5016, 49.2699], [-102.2046, 50.2086], [-100.8559, 51.1324], [-99.4527, 52.04], [-97.9919, 52.9302], [-96.4703, 53.8018], [-94.885, 54.6534], [-93.2327, 55.4833], [-91.5102, 56.2901], [-89.7147, 57.0719], [-87.8433, 57.827], [-85.8933, 58.5533], [-83.8626, 59.2489], [-81.7493, 59.9116], [-79.5523, 60.539], [-77.2711, 61.1291], [-74.906, 61.6792], [-72.4585, 62.1872], [-69.9311, 62.6506], [-67.3276, 63.0671], [-64.653, 63.4344], [-61.9138, 63.7506], [-59.1179, 64.0138], [-56.2745, 64.2222], [-53.3937, 64.3746], [-50.4868, 64.47], [-47.5658, 64.5077], [-44.6429, 64.4874], [-41.7305, 64.4094], [-38.8407, 64.2741], [-35.9848, 64.0824], [-33.1736, 63.8355], [-30.4165, 63.5351], [-27.7217, 63.183], [-25.0961, 62.781], [-22.5453, 62.3315], [-20.0735, 61.8368], [-17.6834, 61.2991], [-15.3768, 60.7208], [-13.1545, 60.1043], [-11.0161, 59.452], [-8.9607, 58.7662], [-6.9866, 58.0489], [-5.0917, 57.3022], [-3.2736, 56.5283], [-1.5295, 55.7288], [0.1436, 54.9057], [1.7488, 54.0605], [3.2892, 53.1948], [4.768, 52.31]]}}, {"type": "Feature", "properties": {"lane_id": "lane_cymer_asml", "seq": 3, "mode": "road", "km": 109}, "geometry": {"type": "LineString", "coordinates": [[4.768, 52.31], [5.41, 51.41]]}}, {"type": "Feature", "properties": {"lane_id": "lane_helium_qa_tsmc", "seq": 1, "mode": "road", "km": 5}, "geometry": {"type": "LineString", "coordinates": [[51.55, 25.91], [51.6, 25.93]]}}, {"type": "Feature", "properties": {"lane_id": "lane_helium_qa_tsmc", "seq": 2, "mode": "sea", "km": 9872}, "geometry": {"type": "LineString", "coordinates": [[51.6, 26.3], [53.149, 26.2549], [54.3991, 26.1949], [55.0643, 26.1511], [55.345, 26.1327], [56.3434, 26.4411], [56.5472, 26.5111], [56.7631, 26.4221], [56.9315, 25.962], [57.1, 25.5], [59, 24], [60.4, 22.7], [62.376, 21.4404], [64.5005, 20.0838], [64.9526, 19.4262], [66.2579, 17.5275], [66.6882, 16.9017], [67.6538, 15.7182], [68.8018, 14.6786], [69.9994, 13.7657], [75.3, 9.7], [77, 8], [78.8689, 6.6749], [80.1, 5.8], [81.9, 5.9], [85.9479, 6.1983], [90, 6.4664], [94.3264, 6.1571], [98.1281, 5.8117], [99.7638, 4.0845], [100.6, 3.2], [101.3164, 2.5861], [102, 2], [103.6, 1.1], [103.8611, 1.1714], [104.1458, 1.2493], [104.4823, 1.3413], [109.9341, 7.5453], [111.9134, 9.7977], [115.0445, 13.3608], [118.1619, 16.9083], [119.0388, 17.9093], [120, 19], [120, 22.1], [120.141, 22.7021], [120.2533, 22.7053]]}}, {"type": "Feature", "properties": {"lane_id": "lane_helium_qa_tsmc", "seq": 3, "mode": "road", "km": 56}, "geometry": {"type": "LineString", "coordinates": [[120.28, 22.61], [120.272, 23.11]]}}, {"type": "Feature", "properties": {"lane_id": "lane_helium_qa_skh", "seq": 1, "mode": "road", "km": 5}, "geometry": {"type": "LineString", "coordinates": [[51.55, 25.91], [51.6, 25.93]]}}, {"type": "Feature", "properties": {"lane_id": "lane_helium_qa_skh", "seq": 2, "mode": "sea", "km": 11467}, "geometry": {"type": "LineString", "coordinates": [[51.6, 26.3], [53.149, 26.2549], [54.3991, 26.1949], [55.0643, 26.1511], [55.345, 26.1327], [56.3434, 26.4411], [56.5472, 26.5111], [56.7631, 26.4221], [56.9315, 25.962], [57.1, 25.5], [59, 24], [60.4, 22.7], [62.376, 21.4404], [64.5005, 20.0838], [64.9526, 19.4262], [66.2579, 17.5275], [66.6882, 16.9017], [67.6538, 15.7182], [68.8018, 14.6786], [69.9994, 13.7657], [75.3, 9.7], [77, 8], [78.8689, 6.6749], [80.1, 5.8], [81.9, 5.9], [85.9479, 6.1983], [90, 6.4664], [94.3264, 6.1571], [98.1281, 5.8117], [99.7638, 4.0845], [100.6, 3.2], [101.3164, 2.5861], [102, 2], [103.6, 1.1], [103.8611, 1.1714], [104.1458, 1.2493], [104.4823, 1.3413], [108.7023, 8.3192], [110.0276, 10.1732], [110.807, 11.2635], [111.0534, 11.6082], [111.4783, 12.524], [112.965, 15.7278], [114.3383, 17.5701], [115.8411, 19.6663], [116.5017, 20.6011], [117.438, 21.9225], [118.0305, 22.6915], [118.2035, 22.9309], [118.7241, 23.5827], [118.98, 23.9499], [119.3388, 24.4489], [119.5237, 24.7077], [119.762, 25.0856], [119.8205, 25.237], [120, 25.7], [120.2326, 26.0785], [120.7875, 26.9768], [121.3, 27.8], [122.2394, 28.5797], [122.5573, 29.384], [122.6525, 29.6236], [122.8752, 30.1819], [122.8789, 30.3494], [122.8911, 30.9019], [122.9, 31.3], [125.3438, 32.9837], [126.0352, 33.4544], [126.6432, 33.7354], [127.4446, 34.1044], [128.1693, 34.4069], [128.9163, 34.7619], [129.2, 35]]}}, {"type": "Feature", "properties": {"lane_id": "lane_helium_qa_skh", "seq": 3, "mode": "road", "km": 272}, "geometry": {"type": "LineString", "coordinates": [[129.04, 35.1], [127.49, 37.203]]}}, {"type": "Feature", "properties": {"lane_id": "lane_helium_qa_samsung", "seq": 1, "mode": "road", "km": 5}, "geometry": {"type": "LineString", "coordinates": [[51.55, 25.91], [51.6, 25.93]]}}, {"type": "Feature", "properties": {"lane_id": "lane_helium_qa_samsung", "seq": 2, "mode": "sea", "km": 11467}, "geometry": {"type": "LineString", "coordinates": [[51.6, 26.3], [53.149, 26.2549], [54.3991, 26.1949], [55.0643, 26.1511], [55.345, 26.1327], [56.3434, 26.4411], [56.5472, 26.5111], [56.7631, 26.4221], [56.9315, 25.962], [57.1, 25.5], [59, 24], [60.4, 22.7], [62.376, 21.4404], [64.5005, 20.0838], [64.9526, 19.4262], [66.2579, 17.5275], [66.6882, 16.9017], [67.6538, 15.7182], [68.8018, 14.6786], [69.9994, 13.7657], [75.3, 9.7], [77, 8], [78.8689, 6.6749], [80.1, 5.8], [81.9, 5.9], [85.9479, 6.1983], [90, 6.4664], [94.3264, 6.1571], [98.1281, 5.8117], [99.7638, 4.0845], [100.6, 3.2], [101.3164, 2.5861], [102, 2], [103.6, 1.1], [103.8611, 1.1714], [104.1458, 1.2493], [104.4823, 1.3413], [108.7023, 8.3192], [110.0276, 10.1732], [110.807, 11.2635], [111.0534, 11.6082], [111.4783, 12.524], [112.965, 15.7278], [114.3383, 17.5701], [115.8411, 19.6663], [116.5017, 20.6011], [117.438, 21.9225], [118.0305, 22.6915], [118.2035, 22.9309], [118.7241, 23.5827], [118.98, 23.9499], [119.3388, 24.4489], [119.5237, 24.7077], [119.762, 25.0856], [119.8205, 25.237], [120, 25.7], [120.2326, 26.0785], [120.7875, 26.9768], [121.3, 27.8], [122.2394, 28.5797], [122.5573, 29.384], [122.6525, 29.6236], [122.8752, 30.1819], [122.8789, 30.3494], [122.8911, 30.9019], [122.9, 31.3], [125.3438, 32.9837], [126.0352, 33.4544], [126.6432, 33.7354], [127.4446, 34.1044], [128.1693, 34.4069], [128.9163, 34.7619], [129.2, 35]]}}, {"type": "Feature", "properties": {"lane_id": "lane_helium_qa_samsung", "seq": 3, "mode": "road", "km": 279}, "geometry": {"type": "LineString", "coordinates": [[129.04, 35.1], [127.05, 37.02]]}}, {"type": "Feature", "properties": {"lane_id": "lane_helium_us_skh", "seq": 1, "mode": "road", "km": 498}, "geometry": {"type": "LineString", "coordinates": [[-100.0, 31.0], [-95.02, 29.73]]}}, {"type": "Feature", "properties": {"lane_id": "lane_helium_us_skh", "seq": 2, "mode": "sea", "km": 18022}, "geometry": {"type": "LineString", "coordinates": [[-95.0455, 29.7086], [-95.0014, 29.701], [-94.9823, 29.6835], [-94.9523, 29.6065], [-94.8699, 29.4996], [-94.8021, 29.3675], [-94.7696, 29.3423], [-94.6878, 29.3379], [-94.6251, 29.3068], [-94.3779, 29.1479], [-93.8617, 28.8261], [-92.8863, 28.2242], [-92.5616, 27.8994], [-92.5089, 27.8466], [-91.733, 27.0703], [-90.8597, 26.1965], [-90.8482, 26.185], [-90.5584, 25.9161], [-88.4501, 23.9601], [-87.1835, 22.9468], [-86.8907, 22.7125], [-86.4172, 22.161], [-86.1107, 21.857], [-85.9021, 21.6498], [-85.5999, 20.9331], [-82.8698, 16.0793], [-82.166, 14.5272], [-81.3056, 12.6399], [-80, 9.75], [-79.9006, 9.2082], [-79.8213, 9.173], [-79.8032, 9.1183], [-79.7414, 9.1182], [-79.6893, 9.1064], [-79.6417, 9.036], [-79.5859, 8.9927], [-79.4941, 8.7966], [-79.5, 8.6], [-79.6729, 7.4224], [-80.2278, 6.9837], [-81.4, 6.9], [-82.8, 7.4167], [-87.9974, 10.0358], [-89.1108, 10.5804], [-90.9913, 11.4888], [-99.9134, 15.6305], [-105.5, 18], [-107.2063, 19.3411], [-108.2357, 20.1502], [-109.8326, 21.3951], [-111.0067, 22.3104], [-113.4508, 24.926], [-116.1305, 27.9893], [-117.4914, 28.6964], [-120, 30], [-123.5454, 32.1113], [-124.3124, 32.5681], [-124.5844, 32.7301], [-125.7944, 33.3823], [-126.657, 33.8473], [-129.2517, 35.2459], [-129.4201, 35.3367], [-129.8193, 35.5264], [-130.0018, 35.6132], [-133.1383, 37.1038], [-134.5487, 37.7741], [-135.767, 38.2716], [-137.8634, 39.1276], [-140, 40], [-145.4476, 42.072], [-147.5159, 42.7821], [-150.0022, 43.6357], [-152.3988, 44.4585], [-154.2865, 44.8774], [-154.6507, 44.9582], [-155.4171, 45.1283], [-158.683, 45.853], [-160.0024, 46.0367], [-161.5682, 46.2546], [-163.8166, 46.5676], [-167.3377, 47.0578], [-171.9905, 48.0367], [-177.342, 49.361], [-180, 50], [-180, 50], [-185.8599, 50.6878], [-187.6454, 50.4839], [-189.7961, 50.2383], [-190.2142, 50.1542], [-198.5627, 48.4755], [-199.075, 48.3248], [-199.8058, 48.1099], [-202.0667, 47.4449], [-206.3123, 46.1961], [-214, 43.2], [-216.5984, 41.6997], [-218.7224, 41.682], [-219.6475, 41.3636], [-220.2558, 41.2592], [-230.0277, 35.6655], [-230.4025, 35.4293], [-230.8, 35]]}}, {"type": "Feature", "properties": {"lane_id": "lane_helium_us_skh", "seq": 3, "mode": "road", "km": 272}, "geometry": {"type": "LineString", "coordinates": [[129.04, 35.1], [127.49, 37.203]]}}, {"type": "Feature", "properties": {"lane_id": "lane_quartz_seh", "seq": 1, "mode": "road", "km": 400}, "geometry": {"type": "LineString", "coordinates": [[-82.065, 35.915], [-79.92, 32.78]]}}, {"type": "Feature", "properties": {"lane_id": "lane_quartz_seh", "seq": 2, "mode": "sea", "km": 17441}, "geometry": {"type": "LineString", "coordinates": [[-79.9187, 32.7798], [-79.8335, 32.7353], [-79.2207, 32.2439], [-78.5025, 30.7132], [-78.3395, 30.3659], [-78.071, 29.7935], [-77.8594, 29.3427], [-77.2141, 27.9674], [-77.0996, 27.7234], [-76.9097, 27.3186], [-76.3271, 26.0676], [-76.3001, 26.0029], [-76.1401, 25.549], [-75.3772, 23.3624], [-74.8949, 21.9679], [-74.4068, 21.1135], [-73.8989, 20.3461], [-73.9, 20], [-74.6962, 18.9156], [-75, 18.5], [-75.4083, 17.8011], [-75.9006, 16.9584], [-76.6041, 15.7542], [-77.1633, 14.7731], [-77.6387, 13.976], [-80, 9.75], [-79.9006, 9.2082], [-79.8213, 9.173], [-79.8032, 9.1183], [-79.7414, 9.1182], [-79.6893, 9.1064], [-79.6417, 9.036], [-79.5859, 8.9927], [-79.4941, 8.7966], [-79.5, 8.6], [-79.6729, 7.4224], [-80.2278, 6.9837], [-81.4, 6.9], [-82.8, 7.4167], [-87.9974, 10.0358], [-89.1108, 10.5804], [-90.9913, 11.4888], [-99.9134, 15.6305], [-105.5, 18], [-107.2063, 19.3411], [-108.2357, 20.1502], [-109.8326, 21.3951], [-111.0067, 22.3104], [-113.4508, 24.926], [-116.1305, 27.9893], [-117.4914, 28.6964], [-120, 30], [-123.5454, 32.1113], [-124.3124, 32.5681], [-124.5844, 32.7301], [-125.7944, 33.3823], [-126.657, 33.8473], [-129.2517, 35.2459], [-129.4201, 35.3367], [-129.8193, 35.5264], [-130.0018, 35.6132], [-133.1383, 37.1038], [-134.5487, 37.7741], [-135.767, 38.2716], [-137.8634, 39.1276], [-140, 40], [-145.4476, 42.072], [-147.5159, 42.7821], [-150.0022, 43.6357], [-152.3988, 44.4585], [-154.2865, 44.8774], [-154.6507, 44.9582], [-155.4171, 45.1283], [-158.683, 45.853], [-160.0024, 46.0367], [-161.5682, 46.2546], [-163.8166, 46.5676], [-167.3377, 47.0578], [-171.9905, 48.0367], [-177.342, 49.361], [-180, 50], [-180, 50], [-195.8168, 44.8596], [-210, 40], [-214.4708, 38.0301], [-218.9779, 35.6828], [-219.5233, 35.0862], [-220.1, 34.8], [-220.3638, 35.0165], [-220.2072, 35.2389], [-220.3143, 35.3661]]}}, {"type": "Feature", "properties": {"lane_id": "lane_quartz_seh", "seq": 3, "mode": "road", "km": 194}, "geometry": {"type": "LineString", "coordinates": [[139.66, 35.45], [140.18, 37.14]]}}, {"type": "Feature", "properties": {"lane_id": "lane_poly_seh", "seq": 1, "mode": "road", "km": 749}, "geometry": {"type": "LineString", "coordinates": [[12.83, 48.17], [4.13, 51.95]]}}, {"type": "Feature", "properties": {"lane_id": "lane_poly_seh", "seq": 2, "mode": "sea", "km": 20934}, "geometry": {"type": "LineString", "coordinates": [[4.1518, 51.9618], [4.0697, 51.9876], [3.9, 52], [3.5596, 51.6596], [3.4, 51.5], [2.3567, 51.179], [2.1, 51.1], [1.8132, 50.9884], [1.5677, 50.8928], [1.4414, 50.849], [1.3, 50.8], [1.1939, 50.7653], [0.3929, 50.5034], [-0.3434, 50.2627], [-0.546, 50.1965], [-0.6715, 50.1555], [-1.3, 49.95], [-1.4798, 49.8951], [-1.6657, 49.8382], [-1.9337, 49.7564], [-1.992, 49.7386], [-2.3919, 49.6164], [-3.197, 49.3704], [-3.9862, 49.1292], [-4.0304, 49.1157], [-4.2705, 49.0424], [-5.064, 48.7999], [-5.5, 48.6667], [-6.6989, 47.3401], [-7.955, 45.6688], [-8.4958, 44.9348], [-9.0199, 43.9249], [-9.1426, 43.6885], [-9.5, 43], [-9.9844, 40.7798], [-9.6, 38.5], [-9.4521, 37.7816], [-9.25, 36.8], [-8.2195, 36.5497], [-7.2697, 36.3191], [-5.75, 35.95], [-5.3549, 35.9688], [-5.2694, 35.9729], [-4.7, 36], [-3.683, 36.1565], [-3.2642, 36.2209], [-2.5907, 36.3245], [-2.2448, 36.3777], [-1.6244, 36.4732], [-0.3667, 36.6667], [3.1, 37.2], [7.5, 37.4], [10.373, 37.4821], [11, 37.5], [11.1722, 37.4549], [11.8278, 37.2832], [12.0863, 37.2155], [12.1106, 37.2091], [13.2638, 36.9071], [15.2, 36.4], [16.7266, 36.0869], [17.9021, 35.8457], [21.4074, 35.1267], [23, 34.8], [24.9267, 34.1874], [25.4787, 34.0119], [26.3064, 33.7488], [27.9275, 33.2196], [28.2124, 33.1158], [28.9055, 32.8634], [30.4084, 32.3161], [32.1, 31.7], [32.3599, 31.3364], [32.3101, 31.1029], [32.3822, 30.3184], [32.558, 30.214], [32.6, 29.7], [33.2336, 28.4445], [34.5, 27], [37, 23.6], [37.7865, 22.2107], [38.573, 20.8075], [41.001, 17.0988], [42.3413, 14.5091], [42.5411, 13.6761], [43.3, 12.7], [43.7466, 12.4044], [45, 12], [50.8561, 12.884], [53.6189, 13.3], [55.0415, 12.7475], [59.894, 11.0835], [60.8257, 10.867], [62.0601, 10.5802], [64.3032, 10.0316], [64.6989, 9.9348], [64.9928, 9.8629], [65.7044, 9.6889], [68.859, 8.8816], [69.3291, 8.7613], [69.6717, 8.6701], [69.9999, 8.5827], [70.8174, 8.3651], [75.9668, 6.9668], [78.019, 6.3878], [80.1, 5.8], [81.9, 5.9], [85.9479, 6.1983], [90, 6.4664], [94.3264, 6.1571], [98.1281, 5.8117], [99.7638, 4.0845], [100.6, 3.2], [101.3164, 2.5861], [102, 2], [103.6, 1.1], [103.8611, 1.1714], [104.1458, 1.2493], [104.4823, 1.3413], [109.9341, 7.5453], [111.9134, 9.7977], [115.0445, 13.3608], [118.1619, 16.9083], [119.0388, 17.9093], [120, 19], [121.4632, 21.8154], [122.119, 23.0909], [123.4182, 24.5722], [123.978, 24.4697], [124.5889, 24.8093], [125.1892, 25.0259], [127.3757, 25.9851], [127.8369, 25.9803], [132.3323, 29.4912], [134.0399, 30.7103], [136.3268, 32.4438], [138.9551, 34.3956], [139.3011, 34.605], [139.5506, 34.683], [139.6362, 35.0165], [139.7928, 35.2389], [139.6857, 35.3661]]}}, {"type": "Feature", "properties": {"lane_id": "lane_poly_seh", "seq": 3, "mode": "road", "km": 194}, "geometry": {"type": "LineString", "coordinates": [[139.66, 35.45], [140.18, 37.14]]}}, {"type": "Feature", "properties": {"lane_id": "lane_wafer_seh_tsmc", "seq": 1, "mode": "road", "km": 153}, "geometry": {"type": "LineString", "coordinates": [[140.18, 37.14], [140.393, 35.772]]}}, {"type": "Feature", "properties": {"lane_id": "lane_wafer_seh_tsmc", "seq": 2, "mode": "air", "km": 2182}, "geometry": {"type": "LineString", "coordinates": [[140.393, 35.772], [140.0591, 35.6289], [139.7264, 35.4849], [139.3948, 35.34], [139.0645, 35.1942], [138.7353, 35.0476], [138.4074, 34.9], [138.0806, 34.7515], [137.755, 34.6022], [137.4305, 34.452], [137.1073, 34.301], [136.7852, 34.1491], [136.4642, 33.9964], [136.1444, 33.8428], [135.8258, 33.6884], [135.5083, 33.5332], [135.1919, 33.3772], [134.8767, 33.2204], [134.5626, 33.0628], [134.2497, 32.9044], [133.9378, 32.7453], [133.6271, 32.5854], [133.3175, 32.4247], [133.009, 32.2632], [132.7015, 32.1011], [132.3952, 31.9381], [132.09, 31.7745], [131.7858, 31.6101], [131.4827, 31.445], [131.1807, 31.2792], [130.8798, 31.1126], [130.5799, 30.9454], [130.281, 30.7775], [129.9832, 30.6089], [129.6865, 30.4397], [129.3907, 30.2697], [129.096, 30.0991], [128.8023, 29.9279], [128.5096, 29.756], [128.218, 29.5835], [127.9273, 29.4103], [127.6376, 29.2365], [127.3489, 29.062], [127.0611, 28.887], [126.7744, 28.7114], [126.4886, 28.5351], [126.2038, 28.3582], [125.9199, 28.1808], [125.6369, 28.0028], [125.3549, 27.8242], [125.0738, 27.645], [124.7936, 27.4653], [124.5144, 27.285], [124.236, 27.1041], [123.9586, 26.9227], [123.682, 26.7408], [123.4064, 26.5583], [123.1316, 26.3753], [122.8577, 26.1918], [122.5846, 26.0078], [122.3124, 25.8232], [122.041, 25.6381], [121.7705, 25.4526], [121.5009, 25.2665], [121.232, 25.08]]}}, {"type": "Feature", "properties": {"lane_id": "lane_wafer_seh_tsmc", "seq": 3, "mode": "road", "km": 240}, "geometry": {"type": "LineString", "coordinates": [[121.232, 25.08], [120.272, 23.11]]}}, {"type": "Feature", "properties": {"lane_id": "lane_wafer_gw_tsmcaz", "seq": 1, "mode": "road", "km": 1435}, "geometry": {"type": "LineString", "coordinates": [[-96.61, 33.64], [-112.14, 33.77]]}}, {"type": "Feature", "properties": {"lane_id": "lane_wafer_gw_tsmc20", "seq": 1, "mode": "road", "km": 3}, "geometry": {"type": "LineString", "coordinates": [[121.01, 24.78], [121.03, 24.763]]}}, {"type": "Feature", "properties": {"lane_id": "lane_resist_tok_tsmc", "seq": 1, "mode": "road", "km": 70}, "geometry": {"type": "LineString", "coordinates": [[139.66, 35.57], [140.393, 35.772]]}}, {"type": "Feature", "properties": {"lane_id": "lane_resist_tok_tsmc", "seq": 2, "mode": "air", "km": 2182}, "geometry": {"type": "LineString", "coordinates": [[140.393, 35.772], [140.0591, 35.6289], [139.7264, 35.4849], [139.3948, 35.34], [139.0645, 35.1942], [138.7353, 35.0476], [138.4074, 34.9], [138.0806, 34.7515], [137.755, 34.6022], [137.4305, 34.452], [137.1073, 34.301], [136.7852, 34.1491], [136.4642, 33.9964], [136.1444, 33.8428], [135.8258, 33.6884], [135.5083, 33.5332], [135.1919, 33.3772], [134.8767, 33.2204], [134.5626, 33.0628], [134.2497, 32.9044], [133.9378, 32.7453], [133.6271, 32.5854], [133.3175, 32.4247], [133.009, 32.2632], [132.7015, 32.1011], [132.3952, 31.9381], [132.09, 31.7745], [131.7858, 31.6101], [131.4827, 31.445], [131.1807, 31.2792], [130.8798, 31.1126], [130.5799, 30.9454], [130.281, 30.7775], [129.9832, 30.6089], [129.6865, 30.4397], [129.3907, 30.2697], [129.096, 30.0991], [128.8023, 29.9279], [128.5096, 29.756], [128.218, 29.5835], [127.9273, 29.4103], [127.6376, 29.2365], [127.3489, 29.062], [127.0611, 28.887], [126.7744, 28.7114], [126.4886, 28.5351], [126.2038, 28.3582], [125.9199, 28.1808], [125.6369, 28.0028], [125.3549, 27.8242], [125.0738, 27.645], [124.7936, 27.4653], [124.5144, 27.285], [124.236, 27.1041], [123.9586, 26.9227], [123.682, 26.7408], [123.4064, 26.5583], [123.1316, 26.3753], [122.8577, 26.1918], [122.5846, 26.0078], [122.3124, 25.8232], [122.041, 25.6381], [121.7705, 25.4526], [121.5009, 25.2665], [121.232, 25.08]]}}, {"type": "Feature", "properties": {"lane_id": "lane_resist_tok_tsmc", "seq": 3, "mode": "road", "km": 240}, "geometry": {"type": "LineString", "coordinates": [[121.232, 25.08], [120.272, 23.11]]}}]}